CZ-2C R/B               
1 54039U 22132E   26002.96442361  .00051984  00000+0  73082-3 0  9995
2 54039  97.2936   4.5901 0019036 342.3914  17.6679 15.56316525180131
GSLV R/B                
1 54149U 22138AN  26003.25786963  .00005672  00000+0  49733-3 0  9994
2 54149  87.3820 188.2666 0023096  34.5928 325.6800 14.96270054174140
XRISM                   
1 57800U 23137A   26003.24507941  .00011547  00000+0  67505-3 0  9992
2 57800  31.0035 346.6748 0007646 103.7447 256.4042 15.10626697127883
ACS3                    
1 59588U 24077B   26003.26650227  .00034800  00000+0  29240-1 0  9998
2 59588  97.2518 319.0618 0069153 284.5614  74.7885 13.86684386 85129
SZ-21 MODULE            
1 66515U 25246C   26003.00740601  .00040642  00000+0  42308-3 0  9996
2 66515  41.4755 246.1963 0002323  25.4667 334.6288 15.63793066  7773
